OBJECT_NAME,OBJECT_ID,EPOCH,MEAN_MOTION,ECCENTRICITY,INCLINATION,RA_OF_ASC_NODE,ARG_OF_PERICENTER,MEAN_ANOMALY,EPHEMERIS_TYPE,CLASSIFICATION_TYPE,NORAD_CAT_ID,ELEMENT_SET_NO,REV_AT_EPOCH,BSTAR,MEAN_MOTION_DOT,MEAN_MOTION_DDOT
SAUDISAT 2,2004-025F,2026-06-14T00:09:33.056640,14.56682374,.0023711,98.5507,164.9063,308.4734,51.4336,0,U,28371,999,16528,.66584E-4,.248E-5,0
COSMOS 2407,2004-028A,2026-06-14T04:02:44.760768,13.76334519,.003781,82.9609,77.0698,260.7127,212.4113,0,U,28380,999,9946,.33223E-4,.47E-6,0
COSMOS 2414,2005-002A,2026-06-14T03:33:50.808672,13.87926361,.0039681,82.9502,45.9454,340.0938,19.8675,0,U,28521,999,8339,.43041E-4,.67E-6,0
INMARSAT 4-F1,2005-009A,2026-06-13T20:50:34.538784,1.00271716,.0002455,5.1634,42.7513,41.8715,308.3195,0,U,28628,999,7763,0,.38E-6,0
SJ-7,2005-024A,2026-06-14T01:34:12.967104,15.21501413,.0016665,97.7282,195.0849,48.2498,312.0158,0,U,28737,999,14755,.37116E-3,.8311E-4,0
CUBESAT XI-V,2005-043F,2026-06-13T09:27:00.601344,14.72622172,.0013416,98.2979,319.9359,213.2696,146.7669,0,U,28895,999,10119,.21486221E-3,.1317E-4,0
HINODE (SOLAR-B),2006-041A,2026-06-13T23:35:46.025376,14.68619215,.0016117,98.0549,181.1829,300.8350,59.1269,0,U,29479,999,5440,.11908E-3,.644E-5,0
SHIJIAN-6 02B (SJ-6 02B),2006-046B,2026-06-14T05:08:02.592096,15.01370657,.0015224,97.7162,194.2909,68.9753,291.3098,0,U,29506,999,7029,.11488E-3,.1423E-4,0
DMSP 5D-3 F17 (USA 191),2006-050A,2026-06-14T04:47:44.556000,14.14992719,.0011235,98.7378,171.8310,67.1624,293.0735,0,U,29522,999,1200,.40796E-4,.36E-6,0
LAPAN-TUBSAT,2007-001A,2026-06-14T05:22:45.312384,14.85948743,.0011665,98.1336,164.3809,189.0596,171.0410,0,U,29709,999,5071,.10635E-3,.871E-5,0
HAIYANG-1B,2007-010A,2026-06-14T04:59:44.818368,14.31026195,.0012823,98.3494,147.1689,205.5424,154.5128,0,U,31113,999,21,.43526E-4,.73E-6,0
COSMO-SKYMED 2,2007-059A,2026-06-14T04:34:26.222592,14.82152754,.0001386,97.8885,348.8320,86.2929,273.8443,0,U,32376,999,156,.50414E-4,.349E-5,0
CARTOSAT-2A,2008-021A,2026-06-14T04:55:54.014592,14.79233522,.0013049,97.7640,214.0157,117.5286,242.7254,0,U,32783,999,97836,.50564E-4,.326E-5,0
CUTE-1.7+APD II (CO-65),2008-021C,2026-06-14T03:11:38.882688,15.09428458,.0010159,97.8270,146.4881,48.7687,311.4415,0,U,32785,999,98473,.32589E-3,.5152E-4,0
SEEDS II (CO-66),2008-021J,2026-06-13T22:28:38.111808,15.32650243,.0001549,97.7509,162.6789,14.7739,345.3547,0,U,32791,999,98679,.59582E-3,.18728E-3,0
YUBILEINY (RS30),2008-025A,2026-06-14T04:49:48.254016,12.43179508,.001898,82.5044,357.2985,320.6774,39.2927,0,U,32953,999,81932,.71742E-3,.11E-5,0
FENGYUN 3A,2008-026A,2026-06-14T02:05:18.446784,14.19570531,.0009476,98.6883,105.9781,131.7324,228.4664,0,U,32958,999,93496,.46595E-4,.55E-6,0
HUANJING 1A (HJ-1A),2008-041A,2026-06-14T04:47:16.937376,14.83983193,.0019748,97.6675,151.1534,143.9526,216.3024,0,U,33320,999,95796,.23354E-3,.1898E-4,0
HUANJING 1B (HJ-1B),2008-041B,2026-06-14T05:37:56.236224,14.83311387,.0035732,97.6512,154.3676,190.7596,169.2859,0,U,33321,999,95797,.69335E-4,.522E-5,0
SHIJIAN-6 03A (SJ-6 03A),2008-053A,2026-06-14T03:31:25.287744,15.17140642,.0011989,97.8413,198.3611,30.8016,329.3918,0,U,33408,999,96250,.24086E-3,.4714E-4,0
SHIJIAN-6 03B (SJ-6 03B),2008-053B,2026-06-14T05:45:00.141408,15.04303450,.0021142,97.8580,185.0824,54.5200,305.7994,0,U,33409,999,96230,.1147E-3,.1539E-4,0
CHUANGXIN 1-02 (CX-1-02),2008-056B,2026-06-14T05:15:36.457344,14.30151769,.0014848,98.6137,191.5153,144.8433,215.3732,0,U,33434,999,91819,-.56156E-4,-.189E-5,0
