SAUDISAT 2              
1 28371U 04025F   26165.00663260  .00000248  00000+0  66584-4 0  9991
2 28371  98.5507 164.9063 0023711 308.4734  51.4336 14.56682374165289
COSMOS 2407             
1 28380U 04028A   26165.16857362  .00000047  00000+0  33223-4 0  9990
2 28380  82.9609  77.0698 0037810 260.7127 212.4113 13.76334519 99462
COSMOS 2414             
1 28521U 05002A   26165.14850473  .00000067  00000+0  43041-4 0  9995
2 28521  82.9502  45.9454 0039681 340.0938  19.8675 13.87926361 83396
INMARSAT 4-F1           
1 28628U 05009A   26164.86845531  .00000038  00000+0  00000+0 0  9998
2 28628   5.1634  42.7513 0002455  41.8715 308.3195  1.00271716 77638
SJ-7                    
1 28737U 05024A   26165.06542786  .00008311  00000+0  37116-3 0  9999
2 28737  97.7282 195.0849 0016665  48.2498 312.0158 15.21501413147554
CUBESAT XI-V            
1 28895U 05043F   26164.39375696  .00001317  00000+0  21486-3 0  9996
2 28895  98.2979 319.9359 0013416 213.2696 146.7669 14.72622172101196
HINODE (SOLAR-B)        
1 29479U 06041A   26164.98317159  .00000644  00000+0  11908-3 0  9999
2 29479  98.0549 181.1829 0016117 300.8350  59.1269 14.68619215 54401
SHIJIAN-6 02B (SJ-6 02B)
1 29506U 06046B   26165.21391889  .00001423  00000+0  11488-3 0  9993
2 29506  97.7162 194.2909 0015224  68.9753 291.3098 15.01370657 70297
DMSP 5D-3 F17 (USA 191) 
1 29522U 06050A   26165.19982125  .00000036  00000+0  40796-4 0  9996
2 29522  98.7378 171.8310 0011235  67.1624 293.0735 14.14992719 12002
LAPAN-TUBSAT            
1 29709U 07001A   26165.22413556  .00000871  00000+0  10635-3 0  9996
2 29709  98.1336 164.3809 0011665 189.0596 171.0410 14.85948743 50717
HAIYANG-1B              
1 31113U 07010A   26165.20815762  .00000073  00000+0  43526-4 0  9991
2 31113  98.3494 147.1689 0012823 205.5424 154.5128 14.31026195   213
COSMO-SKYMED 2          
1 32376U 07059A   26165.19058128  .00000349  00000+0  50414-4 0  9999
2 32376  97.8885 348.8320 0001386  86.2929 273.8443 14.82152754  1562
CARTOSAT-2A             
1 32783U 08021A   26165.20548628  .00000326  00000+0  50564-4 0  9993
2 32783  97.7640 214.0157 0013049 117.5286 242.7254 14.79233522978362
CUTE-1.7+APD II (CO-65) 
1 32785U 08021C   26165.13308892  .00005152  00000+0  32589-3 0  9992
2 32785  97.8270 146.4881 0010159  48.7687 311.4415 15.09428458984734
SEEDS II (CO-66)        
1 32791U 08021J   26164.93655222  .00018728  00000+0  59582-3 0  9993
2 32791  97.7509 162.6789 0001549  14.7739 345.3547 15.32650243986791
YUBILEINY (RS30)        
1 32953U 08025A   26165.20125294  .00000110  00000+0  71742-3 0  9997
2 32953  82.5044 357.2985 0018980 320.6774  39.2927 12.43179508819326
FENGYUN 3A              
1 32958U 08026A   26165.08701906  .00000055  00000+0  46595-4 0  9996
2 32958  98.6883 105.9781 0009476 131.7324 228.4664 14.19570531934968
HUANJING 1A (HJ-1A)     
1 33320U 08041A   26165.19950159  .00001898  00000+0  23354-3 0  9998
2 33320  97.6675 151.1534 0019748 143.9526 216.3024 14.83983193957965
HUANJING 1B (HJ-1B)     
1 33321U 08041B   26165.23467866  .00000522  00000+0  69335-4 0  9995
2 33321  97.6512 154.3676 0035732 190.7596 169.2859 14.83311387957979
SHIJIAN-6 03A (SJ-6 03A)
1 33408U 08053A   26165.14682046  .00004714  00000+0  24086-3 0  9993
2 33408  97.8413 198.3611 0011989  30.8016 329.3918 15.17140642962505
SHIJIAN-6 03B (SJ-6 03B)
1 33409U 08053B   26165.23958497  .00001539  00000+0  11470-3 0  9995
2 33409  97.8580 185.0824 0021142  54.5200 305.7994 15.04303450962304
CHUANGXIN 1-02 (CX-1-02)
1 33434U 08056B   26165.21917196 -.00000189  00000+0 -56156-4 0  9998
2 33434  98.6137 191.5153 0014848 144.8433 215.3732 14.30151769918198
